[{"OBJECT_NAME":"STARLINK-5974","OBJECT_ID":"2023-058AD","EPOCH":"2026-03-09T21:50:56.837184","MEAN_MOTION":15.05653959,"ECCENTRICITY":0.00017848,"INCLINATION":97.6046,"RA_OF_ASC_NODE":71.4943,"ARG_OF_PERICENTER":84.256,"MEAN_ANOMALY":275.887,"EPHEMERIS_TYPE":0,"CLASSIFICATION_TYPE":"U","NORAD_CAT_ID":56344,"ELEMENT_SET_NO":999,"REV_AT_EPOCH":15823,"BSTAR":7.5029831e-5,"MEAN_MOTION_DOT":1.022e-5,"MEAN_MOTION_DDOT":0},{"OBJECT_NAME":"CZ-6A DEB","OBJECT_ID":"2022-151AFF","EPOCH":"2026-03-08T15:34:13.969920","MEAN_MOTION":15.07686186,"ECCENTRICITY":0.00385412,"INCLINATION":98.6214,"RA_OF_ASC_NODE":147.2095,"ARG_OF_PERICENTER":177.326,"MEAN_ANOMALY":182.8178,"EPHEMERIS_TYPE":0,"CLASSIFICATION_TYPE":"U","NORAD_CAT_ID":56631,"ELEMENT_SET_NO":999,"REV_AT_EPOCH":15333,"BSTAR":0.0088285077,"MEAN_MOTION_DOT":0.00139408,"MEAN_MOTION_DDOT":0}]
